HERMES-1                
1 63242U 25052AJ  26068.69342910  .00006601  00000+0  30413-3 0  9993
2 63242  97.4020 322.1122 0007734 159.5432 200.6114 15.20586525 54679
FLOCK 4H-9              
1 66712U 25276AY  26068.72033833  .00007058  00000+0  33916-3 0  9999
2 66712  97.4289 144.0635 0002514 350.5298   9.5889 15.19128409 15320
